{
  "links" : {
    "next" : "https://api.nasa.gov/neo/rest/v1/feed?start_date=2011-09-09&end_date=2011-09-09&detailed=true&api_key=t0TVs3DtDT2H8Oy2Zy8m2eVrNsAVKAexjcZXUckd",
    "prev" : "https://api.nasa.gov/neo/rest/v1/feed?start_date=2011-09-07&end_date=2011-09-07&detailed=true&api_key=t0TVs3DtDT2H8Oy2Zy8m2eVrNsAVKAexjcZXUckd",
    "self" : "https://api.nasa.gov/neo/rest/v1/feed?start_date=2011-09-08&end_date=2011-09-08&detailed=true&api_key=t0TVs3DtDT2H8Oy2Zy8m2eVrNsAVKAexjcZXUckd"
  },
  "element_count" : 6,
  "near_earth_objects" : {
    "2011-09-08" : [ {
      "links" : {
        "self" : "https://api.nasa.gov/neo/rest/v1/neo/3577535?api_key=t0TVs3DtDT2H8Oy2Zy8m2eVrNsAVKAexjcZXUckd"
      },
      "neo_reference_id" : "3577535",
      "name" : "(2011 RJ1)",
      "nasa_jpl_url" : "http://ssd.jpl.nasa.gov/sbdb.cgi?sstr=3577535",
      "absolute_magnitude_h" : 21.8,
      "estimated_diameter" : {
        "kilometers" : {
          "estimated_diameter_min" : 0.1160259082,
          "estimated_diameter_max" : 0.2594418179
        },
        "meters" : {
          "estimated_diameter_min" : 116.0259082094,
          "estimated_diameter_max" : 259.4418179074
        },
        "miles" : {
          "estimated_diameter_min" : 0.0720951346,
          "estimated_diameter_max" : 0.1612096218
        },
        "feet" : {
          "estimated_diameter_min" : 380.6624406898,
          "estimated_diameter_max" : 851.1870938635
        }
      },
      "is_potentially_hazardous_asteroid" : true,
      "close_approach_data" : [ {
        "close_approach_date" : "2011-09-08",
        "epoch_date_close_approach" : 1315465200000,
        "relative_velocity" : {
          "kilometers_per_second" : "8.3005389994",
          "kilometers_per_hour" : "29881.9403979437",
          "miles_per_hour" : "18567.4756878223"
        },
        "miss_distance" : {
          "astronomical" : "0.0656805896",
          "lunar" : "25.5497512817",
          "kilometers" : "9825677",
          "miles" : "6105392.5"
        },
        "orbiting_body" : "Earth"
      } ],
      "orbital_data" : {
        "orbit_id" : "22",
        "orbit_determination_date" : "2017-04-06 08:52:53",
        "orbit_uncertainty" : "5",
        "minimum_orbit_intersection" : ".0472451",
        "jupiter_tisserand_invariant" : "3.163",
        "epoch_osculation" : "2458000.5",
        "eccentricity" : ".5901583348177218",
        "semi_major_axis" : "2.550246417898787",
        "inclination" : "6.761163775972374",
        "ascending_node_longitude" : "7.469243325632791",
        "orbital_period" : "1487.550253177818",
        "perihelion_distance" : "1.045197238536779",
        "perihelion_argument" : "345.3502701419519",
        "aphelion_distance" : "4.055295597260795",
        "perihelion_time" : "2457302.023829717334",
        "mean_anomaly" : "169.0372616081978",
        "mean_motion" : ".2420086307880629",
        "equinox" : "J2000"
      }
    }, {
      "links" : {
        "self" : "https://api.nasa.gov/neo/rest/v1/neo/3578627?api_key=t0TVs3DtDT2H8Oy2Zy8m2eVrNsAVKAexjcZXUckd"
      },
      "neo_reference_id" : "3578627",
      "name" : "(2011 SP5)",
      "nasa_jpl_url" : "http://ssd.jpl.nasa.gov/sbdb.cgi?sstr=3578627",
      "absolute_magnitude_h" : 26.6,
      "estimated_diameter" : {
        "kilometers" : {
          "estimated_diameter_min" : 0.0127219879,
          "estimated_diameter_max" : 0.0284472297
        },
        "meters" : {
          "estimated_diameter_min" : 12.7219878539,
          "estimated_diameter_max" : 28.4472296503
        },
        "miles" : {
          "estimated_diameter_min" : 0.0079050743,
          "estimated_diameter_max" : 0.0176762835
        },
        "feet" : {
          "estimated_diameter_min" : 41.7388066307,
          "estimated_diameter_max" : 93.330808926
        }
      },
      "is_potentially_hazardous_asteroid" : false,
      "close_approach_data" : [ {
        "close_approach_date" : "2011-09-08",
        "epoch_date_close_approach" : 1315465200000,
        "relative_velocity" : {
          "kilometers_per_second" : "3.9849491284",
          "kilometers_per_hour" : "14345.8168622139",
          "miles_per_hour" : "8913.9327053017"
        },
        "miss_distance" : {
          "astronomical" : "0.064449152",
          "lunar" : "25.0707206726",
          "kilometers" : "9641456",
          "miles" : "5990923"
        },
        "orbiting_body" : "Earth"
      } ],
      "orbital_data" : {
        "orbit_id" : "6",
        "orbit_determination_date" : "2017-04-06 08:52:51",
        "orbit_uncertainty" : "8",
        "minimum_orbit_intersection" : ".0642881",
        "jupiter_tisserand_invariant" : "4.393",
        "epoch_osculation" : "2455827.5",
        "eccentricity" : ".3089279368338808",
        "semi_major_axis" : "1.549860060650021",
        "inclination" : "3.790296183968364",
        "ascending_node_longitude" : "173.4570899025959",
        "orbital_period" : "704.7533631821786",
        "perihelion_distance" : "1.071064989732177",
        "perihelion_argument" : "172.1477253258355",
        "aphelion_distance" : "2.028655131567866",
        "perihelion_time" : "2455813.509525365807",
        "mean_anomaly" : "7.146572306612075",
        "mean_motion" : ".510817001815343",
        "equinox" : "J2000"
      }
    }, {
      "links" : {
        "self" : "https://api.nasa.gov/neo/rest/v1/neo/3005956?api_key=t0TVs3DtDT2H8Oy2Zy8m2eVrNsAVKAexjcZXUckd"
      },
      "neo_reference_id" : "3005956",
      "name" : "(1994 RC)",
      "nasa_jpl_url" : "http://ssd.jpl.nasa.gov/sbdb.cgi?sstr=3005956",
      "absolute_magnitude_h" : 19.3,
      "estimated_diameter" : {
        "kilometers" : {
          "estimated_diameter_min" : 0.3669061375,
          "estimated_diameter_max" : 0.8204270649
        },
        "meters" : {
          "estimated_diameter_min" : 366.9061375314,
          "estimated_diameter_max" : 820.4270648822
        },
        "miles" : {
          "estimated_diameter_min" : 0.2279848336,
          "estimated_diameter_max" : 0.5097895857
        },
        "feet" : {
          "estimated_diameter_min" : 1203.7603322587,
          "estimated_diameter_max" : 2691.6899315481
        }
      },
      "is_potentially_hazardous_asteroid" : true,
      "close_approach_data" : [ {
        "close_approach_date" : "2011-09-08",
        "epoch_date_close_approach" : 1315465200000,
        "relative_velocity" : {
          "kilometers_per_second" : "25.3954312634",
          "kilometers_per_hour" : "91423.5525481118",
          "miles_per_hour" : "56807.0401930198"
        },
        "miss_distance" : {
          "astronomical" : "0.4415233505",
          "lunar" : "171.7525787354",
          "kilometers" : "66050952",
          "miles" : "41042160"
        },
        "orbiting_body" : "Earth"
      } ],
      "orbital_data" : {
        "orbit_id" : "16",
        "orbit_determination_date" : "2017-04-06 09:18:13",
        "orbit_uncertainty" : "0",
        "minimum_orbit_intersection" : ".0382994",
        "jupiter_tisserand_invariant" : "3.346",
        "epoch_osculation" : "2458000.5",
        "eccentricity" : ".6034787572410176",
        "semi_major_axis" : "2.265270962859304",
        "inclination" : "4.757951182248021",
        "ascending_node_longitude" : "344.3557846833892",
        "orbital_period" : "1245.313407701088",
        "perihelion_distance" : ".898228057378808",
        "perihelion_argument" : "286.4556382403101",
        "aphelion_distance" : "3.632313868339801",
        "perihelion_time" : "2458272.045225519354",
        "mean_anomaly" : "281.500659526801",
        "mean_motion" : ".2890838545331158",
        "equinox" : "J2000"
      }
    } ]
  }
}